start=new Date('2021-09-01T00:00:00.000Z').valueOf();
sats=[{"DECAY_DATE":null,"OBJECT_TYPE":"PAYLOAD","OBJECT_NAME":"STARLINK-2052","TLE_LINE2":"2 47662  53.0546 261.8480 0000729  69.2779 311.6201 15.06368285  3671","TLE_LINE1":"1 47662U 21012AU  21244.00002315  .00036364  00000-0  24497-2 0  9995","LAUNCH_DATE":"2021-02-16","ELEMENT_SET_NO":"999","PERIAPSIS":"546.806","EPOCH":"2021-09-01T00:00:02.000160","EPHEMERIS_TYPE":"0","RA_OF_ASC_NODE":"261.8480","MEAN_MOTION_DOT":"0.00036364","MEAN_ANOMALY":"311.6201","COUNTRY_CODE":"US","FILE":"3106454","MEAN_ELEMENT_THEORY":"SGP4","ARG_OF_PERICENTER":"69.2779","INCLINATION":"53.0546","REF_FRAME":"TEME","GP_ID":"183842770","ECCENTRICITY":"0.00007290","APOAPSIS":"547.816","NORAD_CAT_ID":"47662","RCS_SIZE":"LARGE","PERIOD":"95.594","REV_AT_EPOCH":"367","SITE":"AFETR","BSTAR":"0.00244970000000","MEAN_MOTION_DDOT":"0.0000000000000","TIME_SYSTEM":"UTC","MEAN_MOTION":"15.06368285","SEMIMAJOR_AXIS":"6925.446","CLASSIFICATION_TYPE":"U","OBJECT_ID":"2021-012AU","CENTER_NAME":"EARTH"},{"ECCENTRICITY":"0.00040250","APOAPSIS":"352.262","GP_ID":"183843020","INCLINATION":"53.0427","REF_FRAME":"TEME","ARG_OF_PERICENTER":"7.3733","MEAN_ELEMENT_THEORY":"SGP4","FILE":"3106454","COUNTRY_CODE":"US","MEAN_ANOMALY":"276.2733","MEAN_MOTION_DOT":"-0.00009227","RA_OF_ASC_NODE":"203.0167","EPHEMERIS_TYPE":"0","PERIAPSIS":"346.846","EPOCH":"2021-09-01T00:00:02.000160","TLE_LINE1":"1 47663U 21012AV  21244.00002315 -.00009227  00000-0 -61124-4 0  9996","ELEMENT_SET_NO":"999","LAUNCH_DATE":"2021-02-16","TLE_LINE2":"2 47663  53.0427 203.0167 0004025   7.3733 276.2733 15.73272267  3771","OBJECT_NAME":"STARLINK-2053","DECAY_DATE":null,"OBJECT_TYPE":"PAYLOAD","OBJECT_ID":"2021-012AV","CENTER_NAME":"EARTH","CLASSIFICATION_TYPE":"U","MEAN_MOTION":"15.73272267","SEMIMAJOR_AXIS":"6727.689","MEAN_MOTION_DDOT":"0.0000000000000","TIME_SYSTEM":"UTC","BSTAR":"-0.00006112400000","SITE":"AFETR","REV_AT_EPOCH":"377","RCS_SIZE":"LARGE","PERIOD":"91.529","NORAD_CAT_ID":"47663"},{"OBJECT_ID":"2021-012AW","CENTER_NAME":"EARTH","CLASSIFICATION_TYPE":"U","MEAN_MOTION":"15.06370158","SEMIMAJOR_AXIS":"6925.440","MEAN_MOTION_DDOT":"0.0000000000000","TIME_SYSTEM":"UTC","BSTAR":"0.00244220000000","REV_AT_EPOCH":"367","SITE":"AFETR","RCS_SIZE":"LARGE","PERIOD":"95.594","NORAD_CAT_ID":"47664","ECCENTRICITY":"0.00004720","APOAPSIS":"547.632","GP_ID":"183841269","INCLINATION":"53.0548","REF_FRAME":"TEME","MEAN_ELEMENT_THEORY":"SGP4","ARG_OF_PERICENTER":"65.2170","COUNTRY_CODE":"US","FILE":"3106454","MEAN_ANOMALY":"310.5554","MEAN_MOTION_DOT":"0.00036253","RA_OF_ASC_NODE":"261.8552","EPHEMERIS_TYPE":"0","PERIAPSIS":"546.978","EPOCH":"2021-09-01T00:00:02.000160","TLE_LINE1":"1 47664U 21012AW  21244.00002315  .00036253  00000-0  24422-2 0  9992","ELEMENT_SET_NO":"999","LAUNCH_DATE":"2021-02-16","TLE_LINE2":"2 47664  53.0548 261.8552 0000472  65.2170 310.5554 15.06370158  3672","OBJECT_NAME":"STARLINK-2054","DECAY_DATE":null,"OBJECT_TYPE":"PAYLOAD"},{"REV_AT_EPOCH":"357","SITE":"AFETR","NORAD_CAT_ID":"47665","PERIOD":"95.593","RCS_SIZE":"LARGE","TIME_SYSTEM":"UTC","MEAN_MOTION_DDOT":"0.0000000000000","SEMIMAJOR_AXIS":"6925.376","MEAN_MOTION":"15.06391148","BSTAR":"0.00176600000000","CLASSIFICATION_TYPE":"U","CENTER_NAME":"EARTH","OBJECT_ID":"2021-012AX","OBJECT_NAME":"STARLINK-2056","OBJECT_TYPE":"PAYLOAD","DECAY_DATE":null,"LAUNCH_DATE":"2021-02-16","ELEMENT_SET_NO":"999","TLE_LINE1":"1 47665U 21012AX  21244.00002315  .00026126  00000-0  17660-2 0  9997","EPOCH":"2021-09-01T00:00:02.000160","PERIAPSIS":"542.264","TLE_LINE2":"2 47665  53.0462 256.8741 0007186 144.0137   4.4746 15.06391148  3573","MEAN_ANOMALY":"4.4746","MEAN_MOTION_DOT":"0.00026126","COUNTRY_CODE":"US","FILE":"3106454","EPHEMERIS_TYPE":"0","RA_OF_ASC_NODE":"256.8741","GP_ID":"183841519","APOAPSIS":"552.217","ECCENTRICITY":"0.00071860","ARG_OF_PERICENTER":"144.0137","MEAN_ELEMENT_THEORY":"SGP4","REF_FRAME":"TEME","INCLINATION":"53.0462"},{"MEAN_MOTION_DDOT":"0.0000000000000","TIME_SYSTEM":"UTC","MEAN_MOTION":"15.06379131","SEMIMAJOR_AXIS":"6925.413","BSTAR":"0.00207050000000","REV_AT_EPOCH":"357","SITE":"AFETR","NORAD_CAT_ID":"47666","RCS_SIZE":"LARGE","PERIOD":"95.593","OBJECT_ID":"2021-012AY","CENTER_NAME":"EARTH","CLASSIFICATION_TYPE":"U","TLE_LINE1":"1 47666U 21012AY  21244.00002315  .00030676  00000-0  20705-2 0  9997","LAUNCH_DATE":"2021-02-16","ELEMENT_SET_NO":"999","PERIAPSIS":"546.976","EPOCH":"2021-09-01T00:00:02.000160","TLE_LINE2":"2 47666  53.0538 256.8421 0000435 193.4839 134.9343 15.06379131  3570","OBJECT_NAME":"STARLINK-2057","DECAY_DATE":null,"OBJECT_TYPE":"PAYLOAD","GP_ID":"183842271","ECCENTRICITY":"0.00004350","APOAPSIS":"547.579","MEAN_ELEMENT_THEORY":"SGP4","ARG_OF_PERICENTER":"193.4839","INCLINATION":"53.0538","REF_FRAME":"TEME","MEAN_MOTION_DOT":"0.00030676","MEAN_ANOMALY":"134.9343","FILE":"3106454","COUNTRY_CODE":"US","EPHEMERIS_TYPE":"0","RA_OF_ASC_NODE":"256.8421"},{"BSTAR":"0.00244080000000","TIME_SYSTEM":"UTC","MEAN_MOTION_DDOT":"0.0000000000000","SEMIMAJOR_AXIS":"6925.420","MEAN_MOTION":"15.06376729","NORAD_CAT_ID":"47667","PERIOD":"95.594","RCS_SIZE":"LARGE","REV_AT_EPOCH":"357","SITE":"AFETR","CENTER_NAME":"EARTH","OBJECT_ID":"2021-012AZ","CLASSIFICATION_TYPE":"U","TLE_LINE2":"2 47667  53.0549 281.8488 0000738 104.0560 101.7464 15.06376729  3575","LAUNCH_DATE":"2021-02-16","ELEMENT_SET_NO":"999","TLE_LINE1":"1 47667U 21012AZ  21244.00002315  .00036239  00000-0  24408-2 0  9993","EPOCH":"2021-09-01T00:00:02.000160","PERIAPSIS":"546.774","OBJECT_TYPE":"PAYLOAD","DECAY_DATE":null,"OBJECT_NAME":"STARLINK-2058","MEAN_ELEMENT_THEORY":"SGP4","ARG_OF_PERICENTER":"104.0560","REF_FRAME":"TEME","INCLINATION":"53.0549","GP_ID":"183842521","APOAPSIS":"547.796","ECCENTRICITY":"0.00007380","EPHEMERIS_TYPE":"0","RA_OF_ASC_NODE":"281.8488","MEAN_ANOMALY":"101.7464","MEAN_MOTION_DOT":"0.00036239","COUNTRY_CODE":"US","FILE":"3106454"},{"ECCENTRICITY":"0.00007450","APOAPSIS":"547.775","GP_ID":"183841769","INCLINATION":"53.0544","REF_FRAME":"TEME","ARG_OF_PERICENTER":"58.1104","MEAN_ELEMENT_THEORY":"SGP4","COUNTRY_CODE":"US","FILE":"3106454","MEAN_MOTION_DOT":"0.00035763","MEAN_ANOMALY":"277.7646","RA_OF_ASC_NODE":"261.8630","EPHEMERIS_TYPE":"0","PERIAPSIS":"546.743","EPOCH":"2021-09-01T00:00:02.000160","TLE_LINE1":"1 47668U 21012BA  21244.00002315  .00035763  00000-0  24086-2 0  9997","LAUNCH_DATE":"2021-02-16","ELEMENT_SET_NO":"999","TLE_LINE2":"2 47668  53.0544 261.8630 0000745  58.1104 277.7646 15.06385312  3562","OBJECT_NAME":"STARLINK-2059","DECAY_DATE":null,"OBJECT_TYPE":"PAYLOAD","OBJECT_ID":"2021-012BA","CENTER_NAME":"EARTH","CLASSIFICATION_TYPE":"U","MEAN_MOTION":"15.06385312","SEMIMAJOR_AXIS":"6925.394","MEAN_MOTION_DDOT":"0.0000000000000","TIME_SYSTEM":"UTC","BSTAR":"0.00240860000000","REV_AT_EPOCH":"356","SITE":"AFETR","RCS_SIZE":"LARGE","PERIOD":"95.593","NORAD_CAT_ID":"47668"},{"MEAN_ANOMALY":"275.3944","MEAN_MOTION_DOT":"0.00011754","COUNTRY_CODE":"US","FILE":"3106454","EPHEMERIS_TYPE":"0","RA_OF_ASC_NODE":"203.0133","GP_ID":"183842019","ECCENTRICITY":"0.00041240","APOAPSIS":"352.332","MEAN_ELEMENT_THEORY":"SGP4","ARG_OF_PERICENTER":"8.7688","INCLINATION":"53.0421","REF_FRAME":"TEME","OBJECT_NAME":"STARLINK-2060","DECAY_DATE":null,"OBJECT_TYPE":"PAYLOAD","TLE_LINE1":"1 47669U 21012BB  21244.00002315  .00011754  00000-0  87768-4 0  9990","LAUNCH_DATE":"2021-02-16","ELEMENT_SET_NO":"999","PERIAPSIS":"346.783","EPOCH":"2021-09-01T00:00:02.000160","TLE_LINE2":"2 47669  53.0421 203.0133 0004124   8.7688 275.3944 15.73270999  3671","CLASSIFICATION_TYPE":"U","OBJECT_ID":"2021-012BB","CENTER_NAME":"EARTH","SITE":"AFETR","REV_AT_EPOCH":"367","NORAD_CAT_ID":"47669","RCS_SIZE":"MEDIUM","PERIOD":"91.529","MEAN_MOTION_DDOT":"0.0000000000000","TIME_SYSTEM":"UTC","MEAN_MOTION":"15.73270999","SEMIMAJOR_AXIS":"6727.693","BSTAR":"0.00008776800000"},{"MEAN_MOTION_DDOT":"0.0000000000000","TIME_SYSTEM":"UTC","MEAN_MOTION":"15.06378005","SEMIMAJOR_AXIS":"6925.416","BSTAR":"0.00201210000000","SITE":"AFETR","REV_AT_EPOCH":"357","NORAD_CAT_ID":"47670","RCS_SIZE":"LARGE","PERIOD":"95.594","OBJECT_ID":"2021-012BC","CENTER_NAME":"EARTH","CLASSIFICATION_TYPE":"U","TLE_LINE1":"1 47670U 21012BC  21244.00002315  .00029816  00000-0  20121-2 0  9998","LAUNCH_DATE":"2021-02-16","ELEMENT_SET_NO":"999","PERIAPSIS":"541.601","EPOCH":"2021-09-01T00:00:02.000160","TLE_LINE2":"2 47670  53.0512 261.8508 0008202 172.8114  82.9920 15.06378005  3578","OBJECT_NAME":"STARLINK-2062","DECAY_DATE":null,"OBJECT_TYPE":"PAYLOAD","GP_ID":"183842771","ECCENTRICITY":"0.00082020","APOAPSIS":"552.961","ARG_OF_PERICENTER":"172.8114","MEAN_ELEMENT_THEORY":"SGP4","INCLINATION":"53.0512","REF_FRAME":"TEME","MEAN_MOTION_DOT":"0.00029816","MEAN_ANOMALY":"82.9920","FILE":"3106454","COUNTRY_CODE":"US","EPHEMERIS_TYPE":"0","RA_OF_ASC_NODE":"261.8508"},{"CENTER_NAME":"EARTH","OBJECT_ID":"2021-012BD","CLASSIFICATION_TYPE":"U","TIME_SYSTEM":"UTC","MEAN_MOTION_DDOT":"0.0000000000000","SEMIMAJOR_AXIS":"6925.455","MEAN_MOTION":"15.06365116","BSTAR":"0.00246180000000","SITE":"AFETR","REV_AT_EPOCH":"356","NORAD_CAT_ID":"47671","PERIOD":"95.594","RCS_SIZE":"LARGE","GP_ID":"183843021","APOAPSIS":"547.843","ECCENTRICITY":"0.00007550","ARG_OF_PERICENTER":"71.0067","MEAN_ELEMENT_THEORY":"SGP4","REF_FRAME":"TEME","INCLINATION":"53.0537","MEAN_MOTION_DOT":"0.00036543","MEAN_ANOMALY":"284.8963","COUNTRY_CODE":"US","FILE":"3106454","EPHEMERIS_TYPE":"0","RA_OF_ASC_NODE":"261.8581","ELEMENT_SET_NO":"999","LAUNCH_DATE":"2021-02-16","TLE_LINE1":"1 47671U 21012BD  21244.00002315  .00036543  00000-0  24618-2 0  9999","EPOCH":"2021-09-01T00:00:02.000160","PERIAPSIS":"546.798","TLE_LINE2":"2 47671  53.0537 261.8581 0000755  71.0067 284.8963 15.06365116  3567","OBJECT_NAME":"STARLINK-2064","OBJECT_TYPE":"PAYLOAD","DECAY_DATE":null}];
